COMMENT,ORIGINATOR,NORAD_CAT_ID,OBJECT_NAME,OBJECT_TYPE,CLASSIFICATION_TYPE,INTLDES,EPOCH,EPOCH_MICROSECONDS,MEAN_MOTION,ECCENTRICITY,INCLINATION,RA_OF_ASC_NODE,ARG_OF_PERICENTER,MEAN_ANOMALY,EPHEMERIS_TYPE,ELEMENT_SET_NO,REV_AT_EPOCH,BSTAR,MEAN_MOTION_DOT,MEAN_MOTION_DDOT,FILE,TLE_LINE0,TLE_LINE1,TLE_LINE2,OBJECT_ID,OBJECT_NUMBER,SEMIMAJOR_AXIS,PERIOD,APOGEE,PERIGEE,DECAYED,date
GENERATED VIA SPACETRACK.ORG API,18 SPCS,52180,SPACEBEE-134,PAYLOAD,U,22033Z,2023/2/4 4:40,825824,15.31172818,0.0007415,97.3613,118.3185,281.492,78.5488,0,999,4701,0.0011555,0.00034865,0,3771952,0 SPACEBEE-134,1 52180U 22033Z   23035.19498641  .00034865  00000-0  11555-2 0  9996,2 52180  97.3613 118.3185 0007415 281.4920  78.5488 15.31172818 47016,2022-033Z,52180,6850.449,94.046,477.394,467.234,1,2023/3/11
GENERATED VIA SPACETRACK.ORG API,18 SPCS,52180,SPACEBEE-134,PAYLOAD,U,22033Z,2023/2/4 18:47,565568,15.31211846,0.0007428,97.3611,118.9022,279.1552,80.8849,0,999,4710,0.0010628,0.00032089,0,3772514,0 SPACEBEE-134,1 52180U 22033Z   23035.78314312  .00032089  00000-0  10628-2 0  9999,2 52180  97.3611 118.9022 0007428 279.1552  80.8849 15.31211846 47101,2022-033Z,52180,6850.333,94.043,477.286,467.109,1,2023/3/12
GENERATED VIA SPACETRACK.ORG API,18 SPCS,52180,SPACEBEE-134,PAYLOAD,U,22033Z,2023/2/5 4:12,666880,15.31237433,0.0007424,97.3609,119.2913,277.7713,82.2685,0,999,4716,0.0010222,0.0003088,0,3773728,0 SPACEBEE-134,1 52180U 22033Z   23036.17523920  .00030880  00000-0  10222-2 0  9997,2 52180  97.3609 119.2913 0007424 277.7713  82.2685 15.31237433 47160,2022-033Z,52180,6850.256,94.042,477.207,467.036,1,2023/3/13
GENERATED VIA SPACETRACK.ORG API,18 SPCS,52180,SPACEBEE-134,PAYLOAD,U,22033Z,2023/2/5 18:19,294144,15.31275339,0.0007391,97.3608,119.8751,275.3816,84.6582,0,999,4723,0.0010116,0.00030593,0,3774122,0 SPACEBEE-134,1 52180U 22033Z   23036.76337146  .00030593  00000-0  10116-2 0  9998,2 52180  97.3608 119.8751 0007391 275.3816  84.6582 15.31275339 47233,2022-033Z,52180,6850.143,94.039,477.071,466.945,1,2023/3/14
GENERATED VIA SPACETRACK.ORG API,18 SPCS,52180,SPACEBEE-134,PAYLOAD,U,22033Z,2023/2/5 18:19,294144,15.31275339,0.0007391,97.3608,119.8751,275.3816,84.6582,0,999,4725,0.0010116,0.00030593,0,3774172,0 SPACEBEE-134,1 52180U 22033Z   23036.76337146  .00030593  00000-0  10116-2 0  9998,2 52180  97.3608 119.8751 0007391 275.3816  84.6582 15.31275339 47255,2022-033Z,52180,6850.143,94.039,477.071,466.945,1,2023/3/15
GENERATED VIA SPACETRACK.ORG API,18 SPCS,52180,SPACEBEE-134,PAYLOAD,U,22033Z,2023/2/6 5:17,820192,15.31312139,0.0007383,97.3607,120.3292,273.5106,86.5291,0,999,4730,0.0012481,0.00037843,0,3775155,0 SPACEBEE-134,1 52180U 22033Z   23037.22079653  .00037843  00000-0  12481-2 0  9998,2 52180  97.3607 120.3292 0007383 273.5106  86.5291 15.31312139 47308,2022-033Z,52180,6850.033,94.037,476.956,466.841,1,2023/3/16
GENERATED VIA SPACETRACK.ORG API,18 SPCS,52180,SPACEBEE-134,PAYLOAD,U,22033Z,2023/2/6 5:17,820192,15.31312139,0.0007383,97.3607,120.3292,273.5106,86.5291,0,999,4732,0.0012481,0.00037843,0,3775254,0 SPACEBEE-134,1 52180U 22033Z   23037.22079653  .00037843  00000-0  12481-2 0  9998,2 52180  97.3607 120.3292 0007383 273.5106  86.5291 15.31312139 47320,2022-033Z,52180,6850.033,94.037,476.956,466.841,1,2023/3/17
GENERATED VIA SPACETRACK.ORG API,18 SPCS,52180,SPACEBEE-134,PAYLOAD,U,22033Z,2023/2/6 19:24,830400,15.31359787,0.0007394,97.3609,120.9124,271.6668,88.3726,0,999,4741,0.0013092,0.00039768,0,3776034,0 SPACEBEE-134,1 52180U 22033Z   23037.80889850  .00039768  00000-0  13092-2 0  9997,2 52180  97.3609 120.9124 0007394 271.6668  88.3726 15.31359787 47419,2022-033Z,52180,6849.891,94.034,476.821,466.692,1,2023/3/18
GENERATED VIA SPACETRACK.ORG API,18 SPCS,52180,SPACEBEE-134,PAYLOAD,U,22033Z,2023/2/7 4:49,527552,15.31400088,0.00074,97.3605,121.3018,270.3565,89.6828,0,999,4745,0.0015732,0.00047913,0,3777169,0 SPACEBEE-134,1 52180U 22033Z   23038.20095518  .00047913  00000-0  15732-2 0  9996,2 52180  97.3605 121.3018 0007400 270.3565  89.6828 15.31400088 47454,2022-033Z,52180,6849.771,94.032,476.705,466.567,1,2023/3/19
GENERATED VIA SPACETRACK.ORG API,18 SPCS,52180,SPACEBEE-134,PAYLOAD,U,22033Z,2023/2/7 4:49,527552,15.31400088,0.00074,97.3605,121.3018,270.3565,89.6828,0,999,4747,0.0015732,0.00047913,0,3777208,0 SPACEBEE-134,1 52180U 22033Z   23038.20095518  .00047913  00000-0  15732-2 0  9996,2 52180  97.3605 121.3018 0007400 270.3565  89.6828 15.31400088 47476,2022-033Z,52180,6849.771,94.032,476.705,466.567,1,2023/3/20
GENERATED VIA SPACETRACK.ORG API,18 SPCS,52180,SPACEBEE-134,PAYLOAD,U,22033Z,2023/2/7 18:56,439456,15.31458355,0.0007405,97.3601,121.8856,268.095,91.9444,0,999,4756,0.0015923,0.00048588,0,3777976,0 SPACEBEE-134,1 52180U 22033Z   23038.78902129  .00048588  00000-0  15923-2 0  9995,2 52180  97.3601 121.8856 0007405 268.0950  91.9444 15.31458355 47564,2022-033Z,52180,6849.597,94.028,476.535,466.39,1,2023/3/21
GENERATED VIA SPACETRACK.ORG API,18 SPCS,52180,SPACEBEE-134,PAYLOAD,U,22033Z,2023/2/8 4:20,836640,15.31502609,0.0007429,97.36,122.2748,266.7185,93.3207,0,999,4760,0.0016773,0.00051275,0,3779117,0 SPACEBEE-134,1 52180U 22033Z   23039.18105135  .00051275  00000-0  16773-2 0  9993,2 52180  97.3600 122.2748 0007429 266.7185  93.3207 15.31502609 47609,2022-033Z,52180,6849.465,94.025,476.419,466.242,1,2023/3/22
GENERATED VIA SPACETRACK.ORG API,18 SPCS,52180,SPACEBEE-134,PAYLOAD,U,22033Z,2023/2/8 4:20,836640,15.31502609,0.0007429,97.36,122.2748,266.7185,93.3207,0,999,4762,0.0016773,0.00051275,0,3780324,0 SPACEBEE-134,1 52180U 22033Z   23039.18105135  .00051275  00000-0  16773-2 0  9993,2 52180  97.3600 122.2748 0007429 266.7185  93.3207 15.31502609 47621,2022-033Z,52180,6849.465,94.025,476.419,466.242,1,2023/3/23
GENERATED VIA SPACETRACK.ORG API,18 SPCS,52180,SPACEBEE-134,PAYLOAD,U,22033Z,2023/2/8 18:27,161216,15.31571606,0.0007423,97.3598,122.8598,266.9368,93.1024,0,999,4771,0.0018152,0.00055648,0,3780893,0 SPACEBEE-134,1 52180U 22033Z   23039.76907594  .00055648  00000-0  18152-2 0  9997,2 52180  97.3598 122.8598 0007423 266.9368  93.1024 15.31571606 47713,2022-033Z,52180,6849.26,94.021,476.209,466.041,1,2023/3/24
GENERATED VIA SPACETRACK.ORG API,18 SPCS,52180,SPACEBEE-134,PAYLOAD,U,22033Z,2023/2/9 5:26,753152,15.31629641,0.0007401,97.3591,123.3125,261.9519,98.0883,0,999,4776,0.0017788,0.00054621,0,3782032,0 SPACEBEE-134,1 52180U 22033Z   23040.22640918  .00054621  00000-0  17788-2 0  9998,2 52180  97.3591 123.3125 0007401 261.9519  98.0883 15.31629641 47762,2022-033Z,52180,6849.087,94.018,476.021,465.883,1,2023/3/25
GENERATED VIA SPACETRACK.ORG API,18 SPCS,52180,SPACEBEE-134,PAYLOAD,U,22033Z,2023/2/9 5:26,753152,15.31629641,0.0007401,97.3591,123.3125,261.9519,98.0883,0,999,4778,0.0017788,0.00054621,0,3782313,0 SPACEBEE-134,1 52180U 22033Z   23040.22640918  .00054621  00000-0  17788-2 0  9998,2 52180  97.3591 123.3125 0007401 261.9519  98.0883 15.31629641 47784,2022-033Z,52180,6849.087,94.018,476.021,465.883,1,2023/3/26
GENERATED VIA SPACETRACK.ORG API,18 SPCS,52180,SPACEBEE-134,PAYLOAD,U,22033Z,2023/2/9 19:32,57536,15.31694828,0.0007441,97.3587,123.8964,260.1275,99.9126,0,999,4787,0.001976,0.00060859,0,3783241,0 SPACEBEE-134,1 52180U 22033Z   23040.81438724  .00060859  00000-0  19760-2 0  9995,2 52180  97.3587 123.8964 0007441 260.1275  99.9126 15.31694828 47878,2022-033Z,52180,6848.892,94.014,475.854,465.661,1,2023/3/27
GENERATED VIA SPACETRACK.ORG API,18 SPCS,52180,SPACEBEE-134,PAYLOAD,U,22033Z,2023/2/10 6:31,528704,15.31756552,0.0007452,97.3591,124.3501,257.9136,102.1271,0,999,4792,0.0022144,0.00068409,0,3784744,0 SPACEBEE-134,1 52180U 22033Z   23041.27168436  .00068409  00000-0  22144-2 0  9995,2 52180  97.3591 124.3501 0007452 257.9136 102.1271 15.31756552 47925,2022-033Z,52180,6848.708,94.01,475.677,465.47,1,2023/3/28
GENERATED VIA SPACETRACK.ORG API,18 SPCS,52180,SPACEBEE-134,PAYLOAD,U,22033Z,2023/2/10 19:03,540224,15.3181601,0.0007512,97.3589,124.8694,256.7929,103.2475,0,999,4802,0.001865,0.00057629,0,3785071,0 SPACEBEE-134,1 52180U 22033Z   23041.79428866  .00057629  00000-0  18650-2 0  9997,2 52180  97.3589 124.8694 0007512 256.7929 103.2475 15.31816010 48020,2022-033Z,52180,6848.531,94.006,475.541,465.252,1,2023/3/29
GENERATED VIA SPACETRACK.ORG API,18 SPCS,52180,SPACEBEE-134,PAYLOAD,U,22033Z,2023/2/10 19:03,540224,15.3181601,0.0007512,97.3589,124.8694,256.7929,103.2475,0,999,4800,0.001865,0.00057629,0,3785417,0 SPACEBEE-134,1 52180U 22033Z   23041.79428866  .00057629  00000-0  18650-2 0  9997,2 52180  97.3589 124.8694 0007512 256.7929 103.2475 15.31816010 48008,2022-033Z,52180,6848.531,94.006,475.541,465.252,1,2023/3/30
GENERATED VIA SPACETRACK.ORG API,18 SPCS,52180,SPACEBEE-134,PAYLOAD,U,22033Z,2023/2/11 4:28,11936,15.31869727,0.0007537,97.3588,125.2586,254.9706,105.0702,0,999,4808,0.002014,0.00062383,0,3786144,0 SPACEBEE-134,1 52180U 22033Z   23042.18622699  .00062383  00000-0  20140-2 0  9991,2 52180  97.3588 125.2586 0007537 254.9706 105.0702 15.31869727 48086,2022-033Z,52180,6848.371,94.003,475.398,465.074,1,2023/3/31
GENERATED VIA SPACETRACK.ORG API,18 SPCS,52180,SPACEBEE-134,PAYLOAD,U,22033Z,2023/2/11 17:00,613248,15.31935177,0.0007506,97.3591,125.7782,253.9578,106.0837,0,999,4816,0.002047,0.00063545,0,3786577,0 SPACEBEE-134,1 52180U 22033Z   23042.70879182  .00063545  00000-0  20470-2 0  9997,2 52180  97.3591 125.7782 0007506 253.9578 106.0837 15.31935177 48167,2022-033Z,52180,6848.176,93.999,475.181,464.901,1,2023/4/1
GENERATED VIA SPACETRACK.ORG API,18 SPCS,52180,SPACEBEE-134,PAYLOAD,U,22033Z,2023/2/11 23:16,624640,15.31967736,0.0007524,97.359,126.0375,252.5069,107.5351,0,999,4818,0.0018813,0.00058415,0,3786552,0 SPACEBEE-134,1 52180U 22033Z   23042.97006510  .00058415  00000-0  18813-2 0  9991,2 52180  97.3590 126.0375 0007524 252.5069 107.5351 15.31967736 48183,2022-033Z,52180,6848.079,93.997,475.096,464.792,1,2023/4/2
